[{"OBJECT_NAME":"ONEWEB-0683","OBJECT_ID":"2023-068K","EPOCH":"2026-06-12T06:19:53.066496","MEAN_MOTION":13.15549037,"ECCENTRICITY":0.0002232,"INCLINATION":87.901,"RA_OF_ASC_NODE":260.1739,"ARG_OF_PERICENTER":104.5143,"MEAN_ANOMALY":255.6235,"EPHEMERIS_TYPE":0,"CLASSIFICATION_TYPE":"U","NORAD_CAT_ID":56719,"ELEMENT_SET_NO":999,"REV_AT_EPOCH":14877,"BSTAR":0.00041221000000000004,"MEAN_MOTION_DOT":1.68e-06,"MEAN_MOTION_DDOT":0.0},{"OBJECT_NAME":"ONEWEB-0684","OBJECT_ID":"2023-068L","EPOCH":"2026-06-12T06:31:17.135904","MEAN_MOTION":13.15548068,"ECCENTRICITY":0.0001205,"INCLINATION":87.9009,"RA_OF_ASC_NODE":260.1625,"ARG_OF_PERICENTER":142.9407,"MEAN_ANOMALY":217.1807,"EPHEMERIS_TYPE":0,"CLASSIFICATION_TYPE":"U","NORAD_CAT_ID":56720,"ELEMENT_SET_NO":999,"REV_AT_EPOCH":14860,"BSTAR":0.0001719,"MEAN_MOTION_DOT":7.8e-07,"MEAN_MOTION_DDOT":0.0},{"OBJECT_NAME":"ONEWEB-0686","OBJECT_ID":"2023-068M","EPOCH":"2026-06-12T04:31:09.116544","MEAN_MOTION":13.16594923,"ECCENTRICITY":0.0002158,"INCLINATION":87.9092,"RA_OF_ASC_NODE":229.7862,"ARG_OF_PERICENTER":107.4186,"MEAN_ANOMALY":252.7181,"EPHEMERIS_TYPE":0,"CLASSIFICATION_TYPE":"U","NORAD_CAT_ID":56721,"ELEMENT_SET_NO":999,"REV_AT_EPOCH":15105,"BSTAR":0.00019656000000000003,"MEAN_MOTION_DOT":8.8e-07,"MEAN_MOTION_DDOT":0.0},{"OBJECT_NAME":"ONEWEB-0694","OBJECT_ID":"2023-068N","EPOCH":"2026-06-12T04:40:16.027680","MEAN_MOTION":13.16594885,"ECCENTRICITY":0.0002522,"INCLINATION":87.9113,"RA_OF_ASC_NODE":229.7485,"ARG_OF_PERICENTER":101.2277,"MEAN_ANOMALY":258.9138,"EPHEMERIS_TYPE":0,"CLASSIFICATION_TYPE":"U","NORAD_CAT_ID":56722,"ELEMENT_SET_NO":999,"REV_AT_EPOCH":15111,"BSTAR":5.6106e-05,"MEAN_MOTION_DOT":3.4e-07,"MEAN_MOTION_DDOT":0.0},{"OBJECT_NAME":"ONEWEB-0696","OBJECT_ID":"2023-068P","EPOCH":"2026-06-12T07:19:10.310880","MEAN_MOTION":13.15546325,"ECCENTRICITY":0.000149,"INCLINATION":87.9,"RA_OF_ASC_NODE":260.1945,"ARG_OF_PERICENTER":98.8652,"MEAN_ANOMALY":261.2647,"EPHEMERIS_TYPE":0,"CLASSIFICATION_TYPE":"U","NORAD_CAT_ID":56723,"ELEMENT_SET_NO":999,"REV_AT_EPOCH":14872,"BSTAR":-0.00022178,"MEAN_MOTION_DOT":-7.1e-07,"MEAN_MOTION_DDOT":0.0},{"OBJECT_NAME":"ONEWEB-0703","OBJECT_ID":"2023-068Q","EPOCH":"2026-06-12T05:43:22.266624","MEAN_MOTION":13.15548145,"ECCENTRICITY":0.0001251,"INCLINATION":87.8999,"RA_OF_ASC_NODE":260.189,"ARG_OF_PERICENTER":82.0278,"MEAN_ANOMALY":278.0995,"EPHEMERIS_TYPE":0,"CLASSIFICATION_TYPE":"U","NORAD_CAT_ID":56724,"ELEMENT_SET_NO":999,"REV_AT_EPOCH":14860,"BSTAR":0.00012864999999999998,"MEAN_MOTION_DOT":6.1e-07,"MEAN_MOTION_DDOT":0.0},{"OBJECT_NAME":"ONEWEB-0721","OBJECT_ID":"2023-068R","EPOCH":"2026-06-12T07:08:41.769888","MEAN_MOTION":13.22469212,"ECCENTRICITY":0.0001921,"INCLINATION":86.6768,"RA_OF_ASC_NODE":87.0768,"ARG_OF_PERICENTER":77.9673,"MEAN_ANOMALY":282.1675,"EPHEMERIS_TYPE":0,"CLASSIFICATION_TYPE":"U","NORAD_CAT_ID":56725,"ELEMENT_SET_NO":999,"REV_AT_EPOCH":15729,"BSTAR":2.8875e-05,"MEAN_MOTION_DOT":2.6e-07,"MEAN_MOTION_DDOT":0.0},{"OBJECT_NAME":"ONEWEB-0015","OBJECT_ID":"2024-188A","EPOCH":"2026-06-12T02:54:38.593728","MEAN_MOTION":13.11419876,"ECCENTRICITY":0.000228,"INCLINATION":87.8891,"RA_OF_ASC_NODE":22.1017,"ARG_OF_PERICENTER":75.6979,"MEAN_ANOMALY":284.4402,"EPHEMERIS_TYPE":0,"CLASSIFICATION_TYPE":"U","NORAD_CAT_ID":61594,"ELEMENT_SET_NO":999,"REV_AT_EPOCH":8379,"BSTAR":0.00077309,"MEAN_MOTION_DOT":2.87e-06,"MEAN_MOTION_DDOT":0.0},{"OBJECT_NAME":"ONEWEB-0687","OBJECT_ID":"2024-188B","EPOCH":"2026-06-12T01:36:39.056544","MEAN_MOTION":13.17647676,"ECCENTRICITY":0.0002364,"INCLINATION":87.9129,"RA_OF_ASC_NODE":6.8957,"ARG_OF_PERICENTER":89.0822,"MEAN_ANOMALY":271.0581,"EPHEMERIS_TYPE":0,"CLASSIFICATION_TYPE":"U","NORAD_CAT_ID":61595,"ELEMENT_SET_NO":999,"REV_AT_EPOCH":8522,"BSTAR":0.00028286,"MEAN_MOTION_DOT":1.23e-06,"MEAN_MOTION_DDOT":0.0},{"OBJECT_NAME":"ONEWEB-0688","OBJECT_ID":"2024-188C","EPOCH":"2026-06-12T02:17:57.849216","MEAN_MOTION":13.17648563,"ECCENTRICITY":0.0002844,"INCLINATION":87.913,"RA_OF_ASC_NODE":6.8895,"ARG_OF_PERICENTER":69.1711,"MEAN_ANOMALY":290.9725,"EPHEMERIS_TYPE":0,"CLASSIFICATION_TYPE":"U","NORAD_CAT_ID":61596,"ELEMENT_SET_NO":999,"REV_AT_EPOCH":8522,"BSTAR":0.00018279,"MEAN_MOTION_DOT":8.4e-07,"MEAN_MOTION_DDOT":0.0},{"OBJECT_NAME":"ONEWEB-0689","OBJECT_ID":"2024-188D","EPOCH":"2026-06-12T03:43:28.103232","MEAN_MOTION":13.11416551,"ECCENTRICITY":0.000201,"INCLINATION":87.8902,"RA_OF_ASC_NODE":22.0521,"ARG_OF_PERICENTER":92.2151,"MEAN_ANOMALY":267.9207,"EPHEMERIS_TYPE":0,"CLASSIFICATION_TYPE":"U","NORAD_CAT_ID":61597,"ELEMENT_SET_NO":999,"REV_AT_EPOCH":8379,"BSTAR":1.3173000000000002e-05,"MEAN_MOTION_DOT":1.7e-07,"MEAN_MOTION_DDOT":0.0},{"OBJECT_NAME":"ONEWEB-0690","OBJECT_ID":"2024-188E","EPOCH":"2026-06-12T02:08:14.734752","MEAN_MOTION":13.11414661,"ECCENTRICITY":0.000136,"INCLINATION":87.8898,"RA_OF_ASC_NODE":22.077,"ARG_OF_PERICENTER":67.2666,"MEAN_ANOMALY":292.8606,"EPHEMERIS_TYPE":0,"CLASSIFICATION_TYPE":"U","NORAD_CAT_ID":61598,"ELEMENT_SET_NO":999,"REV_AT_EPOCH":8396,"BSTAR":-0.0010271,"MEAN_MOTION_DOT":-3.51e-06,"MEAN_MOTION_DDOT":0.0},{"OBJECT_NAME":"ONEWEB-0691","OBJECT_ID":"2024-188F","EPOCH":"2026-06-12T03:50:48.250752","MEAN_MOTION":13.11415529,"ECCENTRICITY":0.0002173,"INCLINATION":87.8906,"RA_OF_ASC_NODE":21.9713,"ARG_OF_PERICENTER":80.3361,"MEAN_ANOMALY":279.8013,"EPHEMERIS_TYPE":0,"CLASSIFICATION_TYPE":"U","NORAD_CAT_ID":61599,"ELEMENT_SET_NO":999,"REV_AT_EPOCH":8382,"BSTAR":-0.00043965,"MEAN_MOTION_DOT":-1.43e-06,"MEAN_MOTION_DDOT":0.0},{"OBJECT_NAME":"ONEWEB-0692","OBJECT_ID":"2024-188G","EPOCH":"2026-06-12T02:30:12.883392","MEAN_MOTION":13.11417768,"ECCENTRICITY":0.0001689,"INCLINATION":87.889,"RA_OF_ASC_NODE":22.0966,"ARG_OF_PERICENTER":110.9507,"MEAN_ANOMALY":249.1802,"EPHEMERIS_TYPE":0,"CLASSIFICATION_TYPE":"U","NORAD_CAT_ID":61600,"ELEMENT_SET_NO":999,"REV_AT_EPOCH":8380,"BSTAR":-0.0017187,"MEAN_MOTION_DOT":-5.96e-06,"MEAN_MOTION_DDOT":0.0},{"OBJECT_NAME":"ONEWEB-0693","OBJECT_ID":"2024-188H","EPOCH":"2026-06-12T06:13:39.790848","MEAN_MOTION":13.17648022,"ECCENTRICITY":0.0001466,"INCLINATION":87.9128,"RA_OF_ASC_NODE":6.877,"ARG_OF_PERICENTER":62.6101,"MEAN_ANOMALY":297.518,"EPHEMERIS_TYPE":0,"CLASSIFICATION_TYPE":"U","NORAD_CAT_ID":61601,"ELEMENT_SET_NO":999,"REV_AT_EPOCH":8523,"BSTAR":0.00010286,"MEAN_MOTION_DOT":5.3e-07,"MEAN_MOTION_DDOT":0.0},{"OBJECT_NAME":"ONEWEB-0695","OBJECT_ID":"2024-188J","EPOCH":"2026-06-12T03:45:55.020384","MEAN_MOTION":13.11414381,"ECCENTRICITY":0.0001947,"INCLINATION":87.8888,"RA_OF_ASC_NODE":22.078,"ARG_OF_PERICENTER":100.6883,"MEAN_ANOMALY":259.4464,"EPHEMERIS_TYPE":0,"CLASSIFICATION_TYPE":"U","NORAD_CAT_ID":61602,"ELEMENT_SET_NO":999,"REV_AT_EPOCH":8380,"BSTAR":-0.00016596,"MEAN_MOTION_DOT":-4.6e-07,"MEAN_MOTION_DDOT":0.0}]