ONEWEB-0683             
1 56719U 23068K   26163.26380864  .00000168  00000+0  41221-3 0  9999
2 56719  87.9010 260.1739 0002232 104.5143 255.6235 13.15549037148773
ONEWEB-0684             
1 56720U 23068L   26163.27172611  .00000078  00000+0  17190-3 0  9999
2 56720  87.9009 260.1625 0001205 142.9407 217.1807 13.15548068148608
ONEWEB-0686             
1 56721U 23068M   26163.18829996  .00000088  00000+0  19656-3 0  9995
2 56721  87.9092 229.7862 0002158 107.4186 252.7181 13.16594923151058
ONEWEB-0694             
1 56722U 23068N   26163.19462995  .00000034  00000+0  56106-4 0  9992
2 56722  87.9113 229.7485 0002522 101.2277 258.9138 13.16594885151116
ONEWEB-0696             
1 56723U 23068P   26163.30498045 -.00000071  00000+0 -22178-3 0  9995
2 56723  87.9000 260.1945 0001490  98.8652 261.2647 13.15546325148723
ONEWEB-0703             
1 56724U 23068Q   26163.23845216  .00000061  00000+0  12865-3 0  9993
2 56724  87.8999 260.1890 0001251  82.0278 278.0995 13.15548145148604
ONEWEB-0721             
1 56725U 23068R   26163.29770567  .00000026  00000+0  28875-4 0  9996
2 56725  86.6768  87.0768 0001921  77.9673 282.1675 13.22469212157293
ONEWEB-0015             
1 61594U 24188A   26163.12128002  .00000287  00000+0  77309-3 0  9997
2 61594  87.8891  22.1017 0002280  75.6979 284.4402 13.11419876 83798
ONEWEB-0687             
1 61595U 24188B   26163.06711871  .00000123  00000+0  28286-3 0  9992
2 61595  87.9129   6.8957 0002364  89.0822 271.0581 13.17647676 85222
ONEWEB-0688             
1 61596U 24188C   26163.09580844  .00000084  00000+0  18279-3 0  9997
2 61596  87.9130   6.8895 0002844  69.1711 290.9725 13.17648563 85221
ONEWEB-0689             
1 61597U 24188D   26163.15518638  .00000017  00000+0  13173-4 0  9992
2 61597  87.8902  22.0521 0002010  92.2151 267.9207 13.11416551 83797
ONEWEB-0690             
1 61598U 24188E   26163.08905943 -.00000351  00000+0 -10271-2 0  9991
2 61598  87.8898  22.0770 0001360  67.2666 292.8606 13.11414661 83967
ONEWEB-0691             
1 61599U 24188F   26163.16028068 -.00000143  00000+0 -43965-3 0  9991
2 61599  87.8906  21.9713 0002173  80.3361 279.8013 13.11415529 83820
ONEWEB-0692             
1 61600U 24188G   26163.10431578 -.00000596  00000+0 -17187-2 0  9990
2 61600  87.8890  22.0966 0001689 110.9507 249.1802 13.11417768 83801
ONEWEB-0693             
1 61601U 24188H   26163.25948832  .00000053  00000+0  10286-3 0  9993
2 61601  87.9128   6.8770 0001466  62.6101 297.5180 13.17648022 85236
ONEWEB-0695             
1 61602U 24188J   26163.15688681 -.00000046  00000+0 -16596-3 0  9990
2 61602  87.8888  22.0780 0001947 100.6883 259.4464 13.11414381 83800
